{
  "type": "FeatureCollection",
  "features": [
    {
      "type": "Feature",
      "properties": {
        "norad_id": 35580,
        "name": "COSMOS 2251 DEB",
        "group": "cosmos-2251-debris",
        "lat": 67.34594429121697,
        "lon": -141.6214758213819,
        "alt_km": 992.7806557099566,
        "timestamp": "2025-12-15T04:01:20.848315+00:00",
        "meta_object_name": "COSMOS 2251 DEB",
        "meta_object_id": "1993-036ALX",
        "meta_epoch": "2025-12-10T21:17:20.461632",
        "meta_mean_motion": 13.83850084,
        "meta_eccentricity": 0.0281508,
        "meta_inclination": 73.9016,
        "meta_ra_of_asc_node": 181.8733,
        "meta_arg_of_pericenter": 187.4326,
        "meta_mean_anomaly": 172.2587,
        "meta_ephemeris_type": 0,
        "meta_classification_type": "U",
        "meta_norad_cat_id": 35580,
        "meta_element_set_no": 999,
        "meta_rev_at_epoch": 62231,
        "meta_bstar": 0.0026077,
        "meta_mean_motion_dot": 3.904e-05,
        "meta_mean_motion_ddot": 0,
        "tle_line1": "1 35580U 93036ALX 25344.88704238  .00003904  00000+0  26077-2 0  9999",
        "tle_line2": "2 35580  73.9016 181.8733 0281508 187.4326 172.2587 13.83850084622311"
      },
      "geometry": {
        "type": "Point",
        "coordinates": [
          -141.6214758213819,
          67.34594429121697
        ]
      }
    },
    {
      "type": "Feature",
      "properties": {
        "norad_id": 35583,
        "name": "COSMOS 2251 DEB",
        "group": "cosmos-2251-debris",
        "lat": -60.3853428892968,
        "lon": 58.58226762512568,
        "alt_km": 779.5965304456777,
        "timestamp": "2025-12-15T04:01:20.848325+00:00",
        "meta_object_name": "COSMOS 2251 DEB",
        "meta_object_id": "1993-036AMA",
        "meta_epoch": "2025-12-14T07:19:11.532576",
        "meta_mean_motion": 13.55338533,
        "meta_eccentricity": 0.0385394,
        "meta_inclination": 73.9165,
        "meta_ra_of_asc_node": 209.4795,
        "meta_arg_of_pericenter": 233.5423,
        "meta_mean_anomaly": 122.9594,
        "meta_ephemeris_type": 0,
        "meta_classification_type": "U",
        "meta_norad_cat_id": 35583,
        "meta_element_set_no": 999,
        "meta_rev_at_epoch": 82433,
        "meta_bstar": 0.00090318033,
        "meta_mean_motion_dot": 9.83e-06,
        "meta_mean_motion_ddot": 0,
        "tle_line1": "1 35583U 93036AMA 25348.30499459  .00000983  00000+0  90318-3 0  9993",
        "tle_line2": "2 35583  73.9165 209.4795 0385394 233.5423 122.9594 13.55338533824338"
      },
      "geometry": {
        "type": "Point",
        "coordinates": [
          58.58226762512568,
          -60.3853428892968
        ]
      }
    },
    {
      "type": "Feature",
      "properties": {
        "norad_id": 35585,
        "name": "COSMOS 2251 DEB",
        "group": "cosmos-2251-debris",
        "lat": 14.743715743113826,
        "lon": -11.303267625767234,
        "alt_km": 1087.6692413696728,
        "timestamp": "2025-12-15T04:01:20.848335+00:00",
        "meta_object_name": "COSMOS 2251 DEB",
        "meta_object_id": "1993-036AMC",
        "meta_epoch": "2025-12-14T07:05:12.164352",
        "meta_mean_motion": 13.75254239,
        "meta_eccentricity": 0.03105325,
        "meta_inclination": 73.9727,
        "meta_ra_of_asc_node": 345.8143,
        "meta_arg_of_pericenter": 257.7629,
        "meta_mean_anomaly": 117.3934,
        "meta_ephemeris_type": 0,
        "meta_classification_type": "U",
        "meta_norad_cat_id": 35585,
        "meta_element_set_no": 999,
        "meta_rev_at_epoch": 64085,
        "meta_bstar": 0.0013108564,
        "meta_mean_motion_dot": 1.761e-05,
        "meta_mean_motion_ddot": 0,
        "tle_line1": "1 35585U 93036AMC 25348.29527968  .00001761  00000+0  13109-2 0  9997",
        "tle_line2": "2 35585  73.9727 345.8143 0310532 257.7629 117.3934 13.75254239640855"
      },
      "geometry": {
        "type": "Point",
        "coordinates": [
          -11.303267625767234,
          14.743715743113826
        ]
      }
    },
    {
      "type": "Feature",
      "properties": {
        "norad_id": 35586,
        "name": "COSMOS 2251 DEB",
        "group": "cosmos-2251-debris",
        "lat": -1.819545555819467,
        "lon": -61.93199320161375,
        "alt_km": 1367.4218926849235,
        "timestamp": "2025-12-15T04:01:20.848345+00:00",
        "meta_object_name": "COSMOS 2251 DEB",
        "meta_object_id": "1993-036AMD",
        "meta_epoch": "2025-12-09T15:43:44.050080",
        "meta_mean_motion": 13.52082947,
        "meta_eccentricity": 0.0404687,
        "meta_inclination": 74.02,
        "meta_ra_of_asc_node": 307.4172,
        "meta_arg_of_pericenter": 183.4058,
        "meta_mean_anomaly": 354.3417,
        "meta_ephemeris_type": 0,
        "meta_classification_type": "U",
        "meta_norad_cat_id": 35586,
        "meta_element_set_no": 999,
        "meta_rev_at_epoch": 60340,
        "meta_bstar": 0.00055296,
        "meta_mean_motion_dot": 5.88e-06,
        "meta_mean_motion_ddot": 0,
        "tle_line1": "1 35586U 93036AMD 25343.65537095  .00000588  00000+0  55296-3 0  9995",
        "tle_line2": "2 35586  74.0200 307.4172 0404687 183.4058 354.3417 13.52082947603405"
      },
      "geometry": {
        "type": "Point",
        "coordinates": [
          -61.93199320161375,
          -1.819545555819467
        ]
      }
    },
    {
      "type": "Feature",
      "properties": {
        "norad_id": 35587,
        "name": "COSMOS 2251 DEB",
        "group": "cosmos-2251-debris",
        "lat": -8.817802813529713,
        "lon": -123.7508687744223,
        "alt_km": 614.7117900271487,
        "timestamp": "2025-12-15T04:01:20.848356+00:00",
        "meta_object_name": "COSMOS 2251 DEB",
        "meta_object_id": "1993-036AME",
        "meta_epoch": "2025-12-12T21:18:47.401632",
        "meta_mean_motion": 14.71521652,
        "meta_eccentricity": 0.01026064,
        "meta_inclination": 74.0049,
        "meta_ra_of_asc_node": 58.1365,
        "meta_arg_of_pericenter": 245.7643,
        "meta_mean_anomaly": 113.2781,
        "meta_ephemeris_type": 0,
        "meta_classification_type": "U",
        "meta_norad_cat_id": 35587,
        "meta_element_set_no": 999,
        "meta_rev_at_epoch": 66348,
        "meta_bstar": 0.00043835007,
        "meta_mean_motion_dot": 2.92e-05,
        "meta_mean_motion_ddot": 0,
        "tle_line1": "1 35587U 93036AME 25346.88804863  .00002920  00000+0  43835-3 0  9992",
        "tle_line2": "2 35587  74.0049  58.1365 0102606 245.7643 113.2781 14.71521652663482"
      },
      "geometry": {
        "type": "Point",
        "coordinates": [
          -123.7508687744223,
          -8.817802813529713
        ]
      }
    },
    {
      "type": "Feature",
      "properties": {
        "norad_id": 35593,
        "name": "COSMOS 2251 DEB",
        "group": "cosmos-2251-debris",
        "lat": -71.03090294316114,
        "lon": -132.02277363799814,
        "alt_km": 738.8150229574048,
        "timestamp": "2025-12-15T04:01:20.848366+00:00",
        "meta_object_name": "COSMOS 2251 DEB",
        "meta_object_id": "1993-036AML",
        "meta_epoch": "2025-12-13T13:39:11.240640",
        "meta_mean_motion": 14.25601821,
        "meta_eccentricity": 0.0105204,
        "meta_inclination": 74.0858,
        "meta_ra_of_asc_node": 286.9573,
        "meta_arg_of_pericenter": 293.2904,
        "meta_mean_anomaly": 65.7198,
        "meta_ephemeris_type": 0,
        "meta_classification_type": "U",
        "meta_norad_cat_id": 35593,
        "meta_element_set_no": 999,
        "meta_rev_at_epoch": 85077,
        "meta_bstar": 0.0011605739,
        "meta_mean_motion_dot": 2.887e-05,
        "meta_mean_motion_ddot": 0,
        "tle_line1": "1 35593U 93036AML 25347.56888010  .00002887  00000+0  11606-2 0  9993",
        "tle_line2": "2 35593  74.0858 286.9573 0105204 293.2904  65.7198 14.25601821850773"
      },
      "geometry": {
        "type": "Point",
        "coordinates": [
          -132.02277363799814,
          -71.03090294316114
        ]
      }
    },
    {
      "type": "Feature",
      "properties": {
        "norad_id": 35594,
        "name": "COSMOS 2251 DEB",
        "group": "cosmos-2251-debris",
        "lat": 46.13555865543417,
        "lon": 119.22914605662585,
        "alt_km": 619.6774427794562,
        "timestamp": "2025-12-15T04:01:20.848376+00:00",
        "meta_object_name": "COSMOS 2251 DEB",
        "meta_object_id": "1993-036AMM",
        "meta_epoch": "2025-12-11T07:49:43.768128",
        "meta_mean_motion": 14.87869065,
        "meta_eccentricity": 0.00302327,
        "meta_inclination": 73.8067,
        "meta_ra_of_asc_node": 109.3962,
        "meta_arg_of_pericenter": 220.7507,
        "meta_mean_anomaly": 139.1411,
        "meta_ephemeris_type": 0,
        "meta_classification_type": "U",
        "meta_norad_cat_id": 35594,
        "meta_element_set_no": 999,
        "meta_rev_at_epoch": 88164,
        "meta_bstar": 0.003372362,
        "meta_mean_motion_dot": 0.00031222,
        "meta_mean_motion_ddot": 0,
        "tle_line1": "1 35594U 93036AMM 25345.32620102  .00031222  00000+0  33724-2 0  9992",
        "tle_line2": "2 35594  73.8067 109.3962 0030232 220.7507 139.1411 14.87869065881643"
      },
      "geometry": {
        "type": "Point",
        "coordinates": [
          119.22914605662585,
          46.13555865543417
        ]
      }
    }
  ]
}